ONEWEB-0092             
1 45437U 20020P   25267.50592189 -.00000210  00000+0 -62940-3 0  9996
2 45437  87.8793  73.9833 0001905  89.7158 270.4189 13.11418353267964
ONEWEB-0085             
1 45438U 20020Q   25267.84757371  .00000389  00000+0  10629-2 0  9991
2 45438  87.8787  73.9281 0001641  91.1763 268.9553 13.11416460267897
ONEWEB-0096             
1 45439U 20020R   25267.84926479  .00000440  00000+0  12066-2 0  9994
2 45439  87.8805  73.8988 0001497  87.4319 272.6981 13.11413263267880
ONEWEB-0037             
1 45440U 20020S   25267.44828566  .00000463  00000+0  12718-2 0  9999
2 45440  87.8806  73.9445 0001728  89.3146 270.8180 13.11417925267866
ONEWEB-0042             
1 45441U 20020T   25267.83894905  .00000572  00000+0  15786-2 0  9992
2 45441  87.8792  73.9055 0001703  86.1644 273.9679 13.11416238267884
ONEWEB-0098             
1 45442U 20020U   25267.83485363  .00000488  00000+0  13424-2 0  9990
2 45442  87.8795  73.9170 0001601  93.3298 266.8013 13.11417224267865
ONEWEB-0055             
1 45443U 20020V   25267.51269397 -.00000055  00000+0 -19026-3 0  9990
2 45443  87.8795  73.9825 0001601  92.9932 267.1379 13.11419237267790
ONEWEB-0093             
1 45444U 20020W   25267.94603130 -.00000456  00000+0 -13233-2 0  9993
2 45444  87.8796  73.8812 0001636  75.8333 284.2976 13.11415753267916
ONEWEB-0029             
1 45445U 20020X   25267.96199533 -.00000600  00000+0 -17293-2 0  9994
2 45445  87.8795  73.8909 0001544  87.9372 272.1932 13.11417904267893
ONEWEB-0068             
1 45446U 20020Y   25267.94575322 -.00000459  00000+0 -13308-2 0  9992
2 45446  87.8795  73.8825 0001523  86.4205 273.7097 13.11413951267838
ONEWEB-0046             
1 45447U 20020Z   25267.86112368 -.00000155  00000+0 -47237-3 0  9993
2 45447  87.8791  73.9090 0001763  83.3234 276.8094 13.11413768267831
ONEWEB-0063             
1 45448U 20020AA  25267.50845152 -.00000397  00000+0 -11570-2 0  9997
2 45448  87.8794  73.9777 0001861  89.0506 271.0836 13.11417659267879
ONEWEB-0019             
1 45449U 20020AB  25267.86366847 -.00000289  00000+0 -85207-3 0  9995
2 45449  87.8786  73.9222 0001553  92.7801 267.3505 13.11415099267768
ONEWEB-0094             
1 45450U 20020AC  25267.95789366  .00000021  00000+0  21331-4 0  9993
2 45450  87.9070  58.5828 0001637  92.2823 267.8496 13.17649668271384
ONEWEB-0087             
1 45451U 20020AD  25267.36591201  .00000347  00000+0  94284-3 0  9995
2 45451  87.8805  73.9563 0001392  81.9099 278.2187 13.11421153267744
ONEWEB-0082             
1 45452U 20020AE  25267.51525148  .00000090  00000+0  21747-3 0  9999
2 45452  87.8804  73.9520 0001478  89.7462 270.3835 13.11417554267857
