[{"OBJECT_NAME":"ONEWEB-0092","OBJECT_ID":"2020-020P","EPOCH":"2025-09-24T12:08:31.651296","MEAN_MOTION":13.11418353,"ECCENTRICITY":0.00019052,"INCLINATION":87.8793,"RA_OF_ASC_NODE":73.9833,"ARG_OF_PERICENTER":89.7158,"MEAN_ANOMALY":270.4189,"EPHEMERIS_TYPE":0,"CLASSIFICATION_TYPE":"U","NORAD_CAT_ID":45437,"ELEMENT_SET_NO":999,"REV_AT_EPOCH":26796,"BSTAR":-0.00062939574,"MEAN_MOTION_DOT":-2.1e-6,"MEAN_MOTION_DDOT":0},{"OBJECT_NAME":"ONEWEB-0085","OBJECT_ID":"2020-020Q","EPOCH":"2025-09-24T20:20:30.368544","MEAN_MOTION":13.1141646,"ECCENTRICITY":0.00016419,"INCLINATION":87.8787,"RA_OF_ASC_NODE":73.9281,"ARG_OF_PERICENTER":91.1763,"MEAN_ANOMALY":268.9553,"EPHEMERIS_TYPE":0,"CLASSIFICATION_TYPE":"U","NORAD_CAT_ID":45438,"ELEMENT_SET_NO":999,"REV_AT_EPOCH":26789,"BSTAR":0.0010628507,"MEAN_MOTION_DOT":3.89e-6,"MEAN_MOTION_DDOT":0},{"OBJECT_NAME":"ONEWEB-0096","OBJECT_ID":"2020-020R","EPOCH":"2025-09-24T20:22:56.477856","MEAN_MOTION":13.11413263,"ECCENTRICITY":0.00014975,"INCLINATION":87.8805,"RA_OF_ASC_NODE":73.8988,"ARG_OF_PERICENTER":87.4319,"MEAN_ANOMALY":272.6981,"EPHEMERIS_TYPE":0,"CLASSIFICATION_TYPE":"U","NORAD_CAT_ID":45439,"ELEMENT_SET_NO":999,"REV_AT_EPOCH":26788,"BSTAR":0.0012066271,"MEAN_MOTION_DOT":4.4e-6,"MEAN_MOTION_DDOT":0},{"OBJECT_NAME":"ONEWEB-0037","OBJECT_ID":"2020-020S","EPOCH":"2025-09-24T10:45:31.881024","MEAN_MOTION":13.11417925,"ECCENTRICITY":0.00017287,"INCLINATION":87.8806,"RA_OF_ASC_NODE":73.9445,"ARG_OF_PERICENTER":89.3146,"MEAN_ANOMALY":270.818,"EPHEMERIS_TYPE":0,"CLASSIFICATION_TYPE":"U","NORAD_CAT_ID":45440,"ELEMENT_SET_NO":999,"REV_AT_EPOCH":26786,"BSTAR":0.0012718247,"MEAN_MOTION_DOT":4.63e-6,"MEAN_MOTION_DDOT":0},{"OBJECT_NAME":"ONEWEB-0042","OBJECT_ID":"2020-020T","EPOCH":"2025-09-24T20:08:05.197920","MEAN_MOTION":13.11416238,"ECCENTRICITY":0.00017037,"INCLINATION":87.8792,"RA_OF_ASC_NODE":73.9055,"ARG_OF_PERICENTER":86.1644,"MEAN_ANOMALY":273.9679,"EPHEMERIS_TYPE":0,"CLASSIFICATION_TYPE":"U","NORAD_CAT_ID":45441,"ELEMENT_SET_NO":999,"REV_AT_EPOCH":26788,"BSTAR":0.0015785962,"MEAN_MOTION_DOT":5.72e-6,"MEAN_MOTION_DDOT":0},{"OBJECT_NAME":"ONEWEB-0098","OBJECT_ID":"2020-020U","EPOCH":"2025-09-24T20:02:11.353632","MEAN_MOTION":13.11417224,"ECCENTRICITY":0.00016016,"INCLINATION":87.8795,"RA_OF_ASC_NODE":73.917,"ARG_OF_PERICENTER":93.3298,"MEAN_ANOMALY":266.8013,"EPHEMERIS_TYPE":0,"CLASSIFICATION_TYPE":"U","NORAD_CAT_ID":45442,"ELEMENT_SET_NO":999,"REV_AT_EPOCH":26786,"BSTAR":0.0013423838,"MEAN_MOTION_DOT":4.88e-6,"MEAN_MOTION_DDOT":0},{"OBJECT_NAME":"ONEWEB-0055","OBJECT_ID":"2020-020V","EPOCH":"2025-09-24T12:18:16.759008","MEAN_MOTION":13.11419237,"ECCENTRICITY":0.00016011,"INCLINATION":87.8795,"RA_OF_ASC_NODE":73.9825,"ARG_OF_PERICENTER":92.9932,"MEAN_ANOMALY":267.1379,"EPHEMERIS_TYPE":0,"CLASSIFICATION_TYPE":"U","NORAD_CAT_ID":45443,"ELEMENT_SET_NO":999,"REV_AT_EPOCH":26779,"BSTAR":-0.00019026442,"MEAN_MOTION_DOT":-5.5e-7,"MEAN_MOTION_DDOT":0},{"OBJECT_NAME":"ONEWEB-0093","OBJECT_ID":"2020-020W","EPOCH":"2025-09-24T22:42:17.104320","MEAN_MOTION":13.11415753,"ECCENTRICITY":0.00016366,"INCLINATION":87.8796,"RA_OF_ASC_NODE":73.8812,"ARG_OF_PERICENTER":75.8333,"MEAN_ANOMALY":284.2976,"EPHEMERIS_TYPE":0,"CLASSIFICATION_TYPE":"U","NORAD_CAT_ID":45444,"ELEMENT_SET_NO":999,"REV_AT_EPOCH":26791,"BSTAR":-0.0013233041,"MEAN_MOTION_DOT":-4.56e-6,"MEAN_MOTION_DDOT":0},{"OBJECT_NAME":"ONEWEB-0029","OBJECT_ID":"2020-020X","EPOCH":"2025-09-24T23:05:16.396512","MEAN_MOTION":13.11417904,"ECCENTRICITY":0.00015443,"INCLINATION":87.8795,"RA_OF_ASC_NODE":73.8909,"ARG_OF_PERICENTER":87.9372,"MEAN_ANOMALY":272.1932,"EPHEMERIS_TYPE":0,"CLASSIFICATION_TYPE":"U","NORAD_CAT_ID":45445,"ELEMENT_SET_NO":999,"REV_AT_EPOCH":26789,"BSTAR":-0.0017292691,"MEAN_MOTION_DOT":-6.0e-6,"MEAN_MOTION_DDOT":0},{"OBJECT_NAME":"ONEWEB-0068","OBJECT_ID":"2020-020Y","EPOCH":"2025-09-24T22:41:53.078208","MEAN_MOTION":13.11413951,"ECCENTRICITY":0.00015239,"INCLINATION":87.8795,"RA_OF_ASC_NODE":73.8825,"ARG_OF_PERICENTER":86.4205,"MEAN_ANOMALY":273.7097,"EPHEMERIS_TYPE":0,"CLASSIFICATION_TYPE":"U","NORAD_CAT_ID":45446,"ELEMENT_SET_NO":999,"REV_AT_EPOCH":26783,"BSTAR":-0.0013307924,"MEAN_MOTION_DOT":-4.59e-6,"MEAN_MOTION_DDOT":0},{"OBJECT_NAME":"ONEWEB-0046","OBJECT_ID":"2020-020Z","EPOCH":"2025-09-24T20:40:01.085952","MEAN_MOTION":13.11413768,"ECCENTRICITY":0.00017638,"INCLINATION":87.8791,"RA_OF_ASC_NODE":73.909,"ARG_OF_PERICENTER":83.3234,"MEAN_ANOMALY":276.8094,"EPHEMERIS_TYPE":0,"CLASSIFICATION_TYPE":"U","NORAD_CAT_ID":45447,"ELEMENT_SET_NO":999,"REV_AT_EPOCH":26783,"BSTAR":-0.00047236959,"MEAN_MOTION_DOT":-1.55e-6,"MEAN_MOTION_DDOT":0},{"OBJECT_NAME":"ONEWEB-0063","OBJECT_ID":"2020-020AA","EPOCH":"2025-09-24T12:12:10.211328","MEAN_MOTION":13.11417659,"ECCENTRICITY":0.00018619,"INCLINATION":87.8794,"RA_OF_ASC_NODE":73.9777,"ARG_OF_PERICENTER":89.0506,"MEAN_ANOMALY":271.0836,"EPHEMERIS_TYPE":0,"CLASSIFICATION_TYPE":"U","NORAD_CAT_ID":45448,"ELEMENT_SET_NO":999,"REV_AT_EPOCH":26787,"BSTAR":-0.0011569707,"MEAN_MOTION_DOT":-3.97e-6,"MEAN_MOTION_DDOT":0},{"OBJECT_NAME":"ONEWEB-0019","OBJECT_ID":"2020-020AB","EPOCH":"2025-09-24T20:43:40.955808","MEAN_MOTION":13.11415099,"ECCENTRICITY":0.00015536,"INCLINATION":87.8786,"RA_OF_ASC_NODE":73.9222,"ARG_OF_PERICENTER":92.7801,"MEAN_ANOMALY":267.3505,"EPHEMERIS_TYPE":0,"CLASSIFICATION_TYPE":"U","NORAD_CAT_ID":45449,"ELEMENT_SET_NO":999,"REV_AT_EPOCH":26776,"BSTAR":-0.00085206636,"MEAN_MOTION_DOT":-2.89e-6,"MEAN_MOTION_DDOT":0},{"OBJECT_NAME":"ONEWEB-0094","OBJECT_ID":"2020-020AC","EPOCH":"2025-09-24T22:59:22.012224","MEAN_MOTION":13.17649668,"ECCENTRICITY":0.00016373,"INCLINATION":87.907,"RA_OF_ASC_NODE":58.5828,"ARG_OF_PERICENTER":92.2823,"MEAN_ANOMALY":267.8496,"EPHEMERIS_TYPE":0,"CLASSIFICATION_TYPE":"U","NORAD_CAT_ID":45450,"ELEMENT_SET_NO":999,"REV_AT_EPOCH":27138,"BSTAR":2.1331001e-5,"MEAN_MOTION_DOT":2.1e-7,"MEAN_MOTION_DDOT":0},{"OBJECT_NAME":"ONEWEB-0087","OBJECT_ID":"2020-020AD","EPOCH":"2025-09-24T08:46:54.797664","MEAN_MOTION":13.11421153,"ECCENTRICITY":0.0001392,"INCLINATION":87.8805,"RA_OF_ASC_NODE":73.9563,"ARG_OF_PERICENTER":81.9099,"MEAN_ANOMALY":278.2187,"EPHEMERIS_TYPE":0,"CLASSIFICATION_TYPE":"U","NORAD_CAT_ID":45451,"ELEMENT_SET_NO":999,"REV_AT_EPOCH":26774,"BSTAR":0.00094283507,"MEAN_MOTION_DOT":3.47e-6,"MEAN_MOTION_DDOT":0},{"OBJECT_NAME":"ONEWEB-0082","OBJECT_ID":"2020-020AE","EPOCH":"2025-09-24T12:21:57.727872","MEAN_MOTION":13.11417554,"ECCENTRICITY":0.00014783,"INCLINATION":87.8804,"RA_OF_ASC_NODE":73.952,"ARG_OF_PERICENTER":89.7462,"MEAN_ANOMALY":270.3835,"EPHEMERIS_TYPE":0,"CLASSIFICATION_TYPE":"U","NORAD_CAT_ID":45452,"ELEMENT_SET_NO":999,"REV_AT_EPOCH":26785,"BSTAR":0.00021747392,"MEAN_MOTION_DOT":9.0e-7,"MEAN_MOTION_DDOT":0}]
